LANDSAT 4               
1 13367U 82072A   01265.23482826  .00004385  00000-0  42743-3 0  9452
2 13367  98.2588 330.7331 0010453  20.5782 339.5852 14.92994534 20949
TDRS 1                  
1 13969U 83026B   01265.10193124 -.00000312  00000-0  10000-3 0  3908
2 13969  11.0971  27.7860 0003848 174.6027 146.5086  1.00268631 40662
LANDSAT 5               
1 14780U 84021A   01265.74106171  .00001073  00000-0  24805-3 0   877
2 14780  98.1984 329.7183 0001625  49.2902 310.8425 14.57116182934076
ERBS                    
1 15354U 84108B   01265.20640384  .00001929  00000-0  17960-3 0  9290
2 15354  56.9918 239.4087 0007591  77.7572 282.4310 14.98657604924632
TDRS 3                  
1 19548U 88091B   01254.90791846 -.00000198  00000-0  10000-3 0  7406
2 19548   6.1437  61.8723 0004839 189.4833 151.6768  1.00272973 34706
TDRS 4                  
1 19883U 89021B   01263.07106944 -.00000285  00000-0  10000-3 0  9543
2 19883   3.9244  78.2918 0004259  77.4610 187.7235  1.00266387218369
HST                     
1 20580U 90037B   01265.87154928  .00005592  00000-0  49134-3 0  7142
2 20580  28.4698 128.2657 0012266 258.6964 101.2241 14.94486400425611
TDRS 5                  
1 21639U 91054B   01264.71686979  .00000066  00000-0  10000-3 0  7327
2 21639   3.0584  84.0521 0001962  82.5798 277.8216  1.00275824 37125
UARS                    
1 21701U 91063B   01265.77725738  .00001738  00000-0  15673-3 0  4304
2 21701  56.9841 308.4540 0005780  83.8364 276.3330 15.00436975548520
EUVE                    
1 21987U 92031A   01265.02421925  .00061454  00000-0  70459-3 0  5524
2 21987  28.4303  31.7695 0004497 155.7224 204.3591 15.60641634518251
TOPEX/POSEIDON          
1 22076U 92052A   01264.29347715 -.00000038  00000-0  10000-3 0  4302
2 22076  66.0430 180.2970 0008219 268.6288  91.3764 12.80929478426300
TDRS 6                  
1 22314U 93003B   01264.04561922 -.00000298  00000-0  00000+0 0  3149
2 22314   2.2941  88.7755 0002457 153.8026  86.7121  1.00265971 31847
TDRS 7                  
1 23613U 95035B   01264.55143939  .00000078  00000-0  10000-3 0   315
2 23613   4.6526  73.1151 0002789  93.9850 220.4955  1.00275441 22654
XTE                     
1 23757U 95074A   01265.70412590  .00006896  00000-0  40511-3 0  8252
2 23757  22.9856 215.6148 0011682 152.3047 207.8056 15.08560187314776
TRMM                    
1 25063U 97074A   01265.37365127 -.00000395  00000-0 -47512-5 0  3145
2 25063  34.9906 302.0898 0004256 193.2277 166.7505 15.55936188219819
ETS 7                   
1 25064U 97074B   01263.66636711  .00011628  00000-0  73729-3 0  7999
2 25064  34.9683 104.0694 0000428 245.3777 114.6888 15.08170408210570
ISS (ZARYA)             
1 25544U 98067A   01266.19548172  .00048088  00000-0  59299-3 0  5038
2 25544  51.6397 315.5889 0007977 123.4944 339.7871 15.59662442162370
LANDSAT 7               
1 25682U 99020A   01265.78122662  .00000337  00000-0  84747-4 0  2340
2 25682  98.1779 331.8563 0000990 117.7247 242.4052 14.57108323129771
TERRA                   
1 25994U 99068A   01265.80558314  .00001168  00000-0  26899-3 0  1017
2 25994  98.1461 340.6572 0001029  68.2296 291.9012 14.57136492 93842
TDRS 8                  
1 26388U 00034A   01265.26513477  .00000109  00000-0  00000+0 0  3255
2 26388   6.0817 289.2972 0023471 204.8909 172.1848  1.00266444  4618
